{
  "type": "FeatureCollection",
  "features": [
    {
      "type": "Feature",
      "properties": {
        "norad_id": 41556,
        "name": "ZIYUAN 3-2 (ZY 3-2)",
        "group": "resource",
        "lat": -19.735720740297413,
        "lon": 62.71725901909618,
        "alt_km": 506.22300456959147,
        "timestamp": "2025-12-11T20:41:14.744584+00:00",
        "meta_object_name": "ZIYUAN 3-2 (ZY 3-2)",
        "meta_object_id": "2016-033A",
        "meta_epoch": "2025-12-11T14:27:40.034880",
        "meta_mean_motion": 15.2148672,
        "meta_eccentricity": 0.00124232,
        "meta_inclination": 97.4041,
        "meta_ra_of_asc_node": 59.7881,
        "meta_arg_of_pericenter": 253.4459,
        "meta_mean_anomaly": 106.5412,
        "meta_ephemeris_type": 0,
        "meta_classification_type": "U",
        "meta_norad_cat_id": 41556,
        "meta_element_set_no": 999,
        "meta_rev_at_epoch": 52946,
        "meta_bstar": 0.00082897767,
        "meta_mean_motion_dot": 0.00018645,
        "meta_mean_motion_ddot": 0,
        "tle_line1": "1 41556U 16033A   25345.60254670  .00018645  00000+0  82898-3 0  9994",
        "tle_line2": "2 41556  97.4041  59.7881 0012423 253.4459 106.5412 15.21486720529461"
      },
      "geometry": {
        "type": "Point",
        "coordinates": [
          62.71725901909618,
          -19.735720740297413
        ]
      }
    },
    {
      "type": "Feature",
      "properties": {
        "norad_id": 41599,
        "name": "CARTOSAT-2C",
        "group": "resource",
        "lat": -67.94682642879908,
        "lon": 62.03649861442191,
        "alt_km": 520.7897690912268,
        "timestamp": "2025-12-11T20:41:14.744594+00:00",
        "meta_object_name": "CARTOSAT-2C",
        "meta_object_id": "2016-040A",
        "meta_epoch": "2025-12-11T14:40:08.163840",
        "meta_mean_motion": 15.19284182,
        "meta_eccentricity": 0.00109966,
        "meta_inclination": 97.4763,
        "meta_ra_of_asc_node": 42.873,
        "meta_arg_of_pericenter": 68.6003,
        "meta_mean_anomaly": 291.6403,
        "meta_ephemeris_type": 0,
        "meta_classification_type": "U",
        "meta_norad_cat_id": 41599,
        "meta_element_set_no": 999,
        "meta_rev_at_epoch": 52523,
        "meta_bstar": 0.00056306155,
        "meta_mean_motion_dot": 0.00011839,
        "meta_mean_motion_ddot": 0,
        "tle_line1": "1 41599U 16040A   25345.61120560  .00011839  00000+0  56306-3 0  9993",
        "tle_line2": "2 41599  97.4763  42.8730 0010996  68.6003 291.6403 15.19284182525231"
      },
      "geometry": {
        "type": "Point",
        "coordinates": [
          62.03649861442191,
          -67.94682642879908
        ]
      }
    },
    {
      "type": "Feature",
      "properties": {
        "norad_id": 41601,
        "name": "SKYSAT-C1",
        "group": "resource",
        "lat": -55.26575250183809,
        "lon": 33.10757930602133,
        "alt_km": 474.76971827448415,
        "timestamp": "2025-12-11T20:41:14.744605+00:00",
        "meta_object_name": "SKYSAT-C1",
        "meta_object_id": "2016-040C",
        "meta_epoch": "2025-12-11T08:23:40.530624",
        "meta_mean_motion": 15.32550324,
        "meta_eccentricity": 0.00025282,
        "meta_inclination": 96.983,
        "meta_ra_of_asc_node": 22.4415,
        "meta_arg_of_pericenter": 19.7612,
        "meta_mean_anomaly": 340.3729,
        "meta_ephemeris_type": 0,
        "meta_classification_type": "U",
        "meta_norad_cat_id": 41601,
        "meta_element_set_no": 999,
        "meta_rev_at_epoch": 52906,
        "meta_bstar": 0.0005196648,
        "meta_mean_motion_dot": 0.00016279,
        "meta_mean_motion_ddot": 0,
        "tle_line1": "1 41601U 16040C   25345.34977466  .00016279  00000+0  51966-3 0  9992",
        "tle_line2": "2 41601  96.9830  22.4415 0002528  19.7612 340.3729 15.32550324529060"
      },
      "geometry": {
        "type": "Point",
        "coordinates": [
          33.10757930602133,
          -55.26575250183809
        ]
      }
    },
    {
      "type": "Feature",
      "properties": {
        "norad_id": 41603,
        "name": "LAPAN-A3",
        "group": "resource",
        "lat": 82.73304794542956,
        "lon": -116.96879866003286,
        "alt_km": 466.46900925372756,
        "timestamp": "2025-12-11T20:41:14.744615+00:00",
        "meta_object_name": "LAPAN-A3",
        "meta_object_id": "2016-040E",
        "meta_epoch": "2025-12-11T15:35:10.694112",
        "meta_mean_motion": 15.31535965,
        "meta_eccentricity": 0.00097929,
        "meta_inclination": 97.1434,
        "meta_ra_of_asc_node": 343.2453,
        "meta_arg_of_pericenter": 338.157,
        "meta_mean_anomaly": 21.9253,
        "meta_ephemeris_type": 0,
        "meta_classification_type": "U",
        "meta_norad_cat_id": 41603,
        "meta_element_set_no": 999,
        "meta_rev_at_epoch": 52609,
        "meta_bstar": 0.00018195736,
        "meta_mean_motion_dot": 5.474e-05,
        "meta_mean_motion_ddot": 0,
        "tle_line1": "1 41603U 16040E   25345.64942933  .00005474  00000+0  18196-3 0  9991",
        "tle_line2": "2 41603  97.1434 343.2453 0009792 338.1570  21.9253 15.31535965526099"
      },
      "geometry": {
        "type": "Point",
        "coordinates": [
          -116.96879866003286,
          82.73304794542956
        ]
      }
    },
    {
      "type": "Feature",
      "properties": {
        "norad_id": 41604,
        "name": "BIROS",
        "group": "resource",
        "lat": 82.83583674530544,
        "lon": -81.80129831128974,
        "alt_km": 295.7786177996968,
        "timestamp": "2025-12-11T20:41:14.744625+00:00",
        "meta_object_name": "BIROS",
        "meta_object_id": "2016-040F",
        "meta_epoch": "2025-12-11T02:10:11.450784",
        "meta_mean_motion": 15.88965505,
        "meta_eccentricity": 0.00032243,
        "meta_inclination": 97.0705,
        "meta_ra_of_asc_node": 16.4571,
        "meta_arg_of_pericenter": 155.3544,
        "meta_mean_anomaly": 204.7884,
        "meta_ephemeris_type": 0,
        "meta_classification_type": "U",
        "meta_norad_cat_id": 41604,
        "meta_element_set_no": 999,
        "meta_rev_at_epoch": 52846,
        "meta_bstar": 0.00075595049,
        "meta_mean_motion_dot": 0.0021286,
        "meta_mean_motion_ddot": 1.8142315e-05,
        "tle_line1": "1 41604U 16040F   25345.09041031  .00212860  18142-4  75595-3 0  9996",
        "tle_line2": "2 41604  97.0705  16.4571 0003224 155.3544 204.7884 15.88965505528467"
      },
      "geometry": {
        "type": "Point",
        "coordinates": [
          -81.80129831128974,
          82.83583674530544
        ]
      }
    },
    {
      "type": "Feature",
      "properties": {
        "norad_id": 41727,
        "name": "GAOFEN-3",
        "group": "resource",
        "lat": 29.258339251331677,
        "lon": 176.21206602837856,
        "alt_km": 749.7342947108518,
        "timestamp": "2025-12-11T20:41:14.744635+00:00",
        "meta_object_name": "GAOFEN-3",
        "meta_object_id": "2016-049A",
        "meta_epoch": "2025-12-11T14:59:51.932832",
        "meta_mean_motion": 14.42213293,
        "meta_eccentricity": 0.00014698,
        "meta_inclination": 98.4041,
        "meta_ra_of_asc_node": 351.2279,
        "meta_arg_of_pericenter": 62.2048,
        "meta_mean_anomaly": 297.929,
        "meta_ephemeris_type": 0,
        "meta_classification_type": "U",
        "meta_norad_cat_id": 41727,
        "meta_element_set_no": 999,
        "meta_rev_at_epoch": 49161,
        "meta_bstar": 8.0876158e-05,
        "meta_mean_motion_dot": 2.23e-06,
        "meta_mean_motion_ddot": 0,
        "tle_line1": "1 41727U 16049A   25345.62490663  .00000223  00000+0  80876-4 0  9995",
        "tle_line2": "2 41727  98.4041 351.2279 0001469  62.2048 297.9290 14.42213293491610"
      },
      "geometry": {
        "type": "Point",
        "coordinates": [
          176.21206602837856,
          29.258339251331677
        ]
      }
    },
    {
      "type": "Feature",
      "properties": {
        "norad_id": 41771,
        "name": "SKYSAT-C4",
        "group": "resource",
        "lat": -28.87643526726059,
        "lon": -172.7587395319708,
        "alt_km": 445.3515473449188,
        "timestamp": "2025-12-11T20:41:14.744645+00:00",
        "meta_object_name": "SKYSAT-C4",
        "meta_object_id": "2016-058B",
        "meta_epoch": "2025-12-11T11:59:52.246464",
        "meta_mean_motion": 15.42194983,
        "meta_eccentricity": 0.00014121,
        "meta_inclination": 96.9377,
        "meta_ra_of_asc_node": 10.7473,
        "meta_arg_of_pericenter": 133.472,
        "meta_mean_anomaly": 226.6646,
        "meta_ephemeris_type": 0,
        "meta_classification_type": "U",
        "meta_norad_cat_id": 41771,
        "meta_element_set_no": 999,
        "meta_rev_at_epoch": 51648,
        "meta_bstar": 0.00059624883,
        "meta_mean_motion_dot": 0.00025551,
        "meta_mean_motion_ddot": 0,
        "tle_line1": "1 41771U 16058B   25345.49991026  .00025551  00000+0  59625-3 0  9996",
        "tle_line2": "2 41771  96.9377  10.7473 0001412 133.4720 226.6646 15.42194983516485"
      },
      "geometry": {
        "type": "Point",
        "coordinates": [
          -172.7587395319708,
          -28.87643526726059
        ]
      }
    }
  ]
}